BEIDOU-2 IGSO-1 (C06)   
1 36828U 10036A   26129.56207134 -.00000068  00000+0  00000+0 0  9998
2 36828  54.2946 163.3091 0058711 224.6236 148.8612  1.00281802 57711
BEIDOU-2 G4 (C04)       
1 37210U 10057A   26131.78383697 -.00000099  00000+0  00000+0 0  9997
2 37210   3.5564  69.1451 0005505 212.0437  30.5390  1.00272951 56927
BEIDOU-2 IGSO-2 (C07)   
1 37256U 10068A   26130.84100878 -.00000212  00000+0  00000+0 0  9990
2 37256  47.6207 272.2954 0053970 212.2509 152.7402  1.00295725 56426
BEIDOU-2 IGSO-3 (C08)   
1 37384U 11013A   26130.65425413 -.00000191  00000+0  00000+0 0  9993
2 37384  62.3585  40.5092 0034066 186.6942 345.0463  1.00277497 55283
BEIDOU-2 IGSO-4 (C09)   
1 37763U 11038A   26131.55698251  .00000061  00000+0  00000+0 0  9998
2 37763  54.6070 165.9997 0157933 230.6258 124.7084  1.00292322 54275
BEIDOU-2 IGSO-5 (C10)   
1 37948U 11073A   26131.86275206 -.00000165  00000+0  00000+0 0  9993
2 37948  47.7477 271.9945 0111691 220.6753 140.2881  1.00257074 52771
BEIDOU-2 G5 (C05)       
1 38091U 12008A   26131.83508953  .00000071  00000+0  00000+0 0  9992
2 38091   3.4829  69.8994 0011176 272.0397 246.9857  1.00271494 52006
BEIDOU-2 M3 (C11)       
1 38250U 12018A   26128.45381045 -.00000038  00000+0  00000+0 0  9999
2 38250  55.7928 306.2139 0019668 277.1817  82.5892  1.86230179 95200
BEIDOU-2 M4 (C12)       
1 38251U 12018B   26128.92300840 -.00000036  00000+0  00000+0 0  9994
2 38251  55.6931 305.4151 0010883 282.3733  77.4996  1.86229854 95211
BEIDOU-2 M6 (C14)       
1 38775U 12050B   26131.31765641 -.00000024  00000+0  00000+0 0  9999
2 38775  56.5136  64.1133 0014351 351.0924   8.8698  1.86230920 92623
BEIDOU-2 G6 (C02)       
1 38953U 12059A   26131.85233954 -.00000162  00000+0  00000+0 0  9995
2 38953   4.3293  73.8977 0010683 320.4991 226.1552  1.00272657 49543
BEIDOU-3S IGSO-1S (C31) 
1 40549U 15019A   26131.41456870 -.00000166  00000+0  00000+0 0  9998
2 40549  49.2668 295.9034 0037624 190.3014 346.4531  1.00258447 40709
BEIDOU-3S M2S (C58)     
1 40748U 15037A   26131.27381031 -.00000037  00000+0  00000+0 0  9996
2 40748  54.9054 303.3168 0007465 268.0236  91.8843  1.86232381 73439
BEIDOU-3S M1S (C57)     
1 40749U 15037B   26131.48573309 -.00000037  00000+0  00000+0 0  9991
2 40749  54.9010 303.2971 0004177  55.3596 304.6730  1.86254916 73445
BEIDOU-3S IGSO-2S (C56) 
1 40938U 15053A   26131.83149812 -.00000165  00000+0  00000+0 0  9998
2 40938  49.2812 259.2153 0064022 190.8705 175.4346  1.00267977 38991
BEIDOU-2 IGSO-6 (C13)   
1 41434U 16021A   26131.69984791 -.00000164  00000+0  00000+0 0  9992
2 41434  60.1769  38.4044 0057415 232.3893 305.3044  1.00265953 37114
BEIDOU-2 G7 (C03)       
1 41586U 16037A   26131.77406124 -.00000341  00000+0  00000+0 0  9992
2 41586   1.6297  68.9647 0007689 357.9109 191.9342  1.00271070  6525
BEIDOU-3 M1 (C19)       
1 43001U 17069A   26131.08303807 -.00000022  00000+0  00000+0 0  9996
2 43001  56.6611  64.3071 0011735 319.7088  40.1924  1.86231419 57916
BEIDOU-3 M2 (C20)       
1 43002U 17069B   26131.02189088 -.00000022  00000+0  00000+0 0  9994
2 43002  56.6651  64.3454 0009686  17.2758 342.7452  1.86231163 57904
BEIDOU-3 M7 (C27)       
1 43107U 18003A   26131.30027513 -.00000039  00000+0  00000+0 0  9992
2 43107  54.3621 303.6010 0005223  84.5737 275.4797  1.86228323 56666
BEIDOU-3 M8 (C28)       
1 43108U 18003B   26131.78256962 -.00000040  00000+0  00000+0 0  9999
2 43108  54.3545 303.5661 0002144 278.5101  81.4584  1.86231274 56682
BEIDOU-3 M4 (C22)       
1 43207U 18018A   26131.15131604 -.00000022  00000+0  00000+0 0  9991
2 43207  56.6202  64.3701 0007751   5.9408 354.0562  1.86231364 56051
BEIDOU-3 M3 (C21)       
1 43208U 18018B   26131.21777272 -.00000022  00000+0  00000+0 0  9996
2 43208  56.6194  64.3718 0009642 332.4369  27.4998  1.86231284 56050
BEIDOU-3 M9 (C29)       
1 43245U 18029A   26131.43542142 -.00000038  00000+0  00000+0 0  9996
2 43245  54.2290 301.2342 0000814 100.4539 259.5462  1.86228428 55219
BEIDOU-3 M10 (C30)      
1 43246U 18029B   26130.83301457 -.00000037  00000+0  00000+0 0  9991
2 43246  54.2269 301.2814 0004634  36.1850 323.8380  1.86229419 55186
BEIDOU-2 IGSO-7 (C16)   
1 43539U 18057A   26130.51871762 -.00000011  00000+0  00000+0 0  9995
2 43539  55.1875 163.3876 0104003 237.7354 126.1724  1.00262765 28754
BEIDOU-3 M5 (C23)       
1 43581U 18062A   26131.05721493  .00000064  00000+0  00000+0 0  9990
2 43581  54.0834 183.5668 0004816 288.0350  71.9915  1.86229011 52941
BEIDOU-3 M6 (C24)       
1 43582U 18062B   26129.30962619  .00000044  00000+0  00000+0 0  9991
2 43582  54.0831 183.6153 0004808  18.9796 341.1148  1.86227992 52917
BEIDOU-3 M12 (C26)      
1 43602U 18067A   26129.24802271  .00000046  00000+0  00000+0 0  9991
2 43602  54.1783 182.3610 0007840  32.7480 327.3771  1.86227965 52394
BEIDOU-3 M11 (C25)      
1 43603U 18067B   26130.45689292  .00000059  00000+0  00000+0 0  9997
2 43603  54.1758 182.2838 0004442  18.1454 341.9481  1.86227411 52444
BEIDOU-3 M13 (C32)      
1 43622U 18072A   26130.94890811 -.00000023  00000+0  00000+0 0  9991
2 43622  56.5935  63.8882 0008404 321.1240  38.8044  1.86231548 51962
